GLOBALSTAR M023         
1 25621U 99004A   25186.81318399 -.00000179  00000+0 -41818-3 0  9995
2 25621  52.0128 356.7246 0010156 162.1262 305.9831 12.62506032218087
GLOBALSTAR M040         
1 25622U 99004B   25186.88309010 -.00000087  00000+0  94372-4 0  9994
2 25622  51.9938   0.6949 0001709  85.1439  59.3086 12.62012118217611
GLOBALSTAR M036         
1 25623U 99004C   25186.42673524 -.00000050  00000+0  48270-3 0  9994
2 25623  51.9933 192.2462 0010981  86.5526  65.7907 11.86608214181143
GLOBALSTAR M038         
1 25624U 99004D   25186.92958206 -.00000076  00000+0  15342-3 0  9995
2 25624  51.9990  17.5958 0002732  90.1343  57.9356 12.32528847204680
GLOBALSTAR M022         
1 25649U 99012A   25186.71567269 -.00000052  00000+0  42401-3 0  9993
2 25649  52.0023 240.5347 0002812 207.1501 309.9210 12.02501287178608
GLOBALSTAR M041         
1 25650U 99012B   25186.17641689 -.00000065  00000+0  26280-3 0  9995
2 25650  52.0009 123.9998 0001938 358.1048   1.9781 11.96681686180431
GLOBALSTAR M046         
1 25651U 99012C   25186.46594765 -.00000117  00000+0 -31610-3 0  9992
2 25651  52.0021 190.6784 0002231 289.4163 227.3134 12.09411658185875
GLOBALSTAR M037         
1 25652U 99012D   25186.93424175 -.00000066  00000+0  21197-3 0  9993
2 25652  51.9995 126.9687 0001608 236.6117 154.3118 12.62448217213646
